KUIPER-00071            
1 64818U 25151C   25250.91670139  .00022305  00000+0  16514-2 0  9991
2 64818  51.8935  32.7345 0006892 338.6906  24.1751 15.03043689  4322
KUIPER-00072            
1 64819U 25151D   25250.56436741  .00033349  00000+0  92535-3 0  9990
2 64819  51.8786  30.5750 0006036 343.0516  17.0268 15.36594582  8181
KUIPER-00073            
1 64820U 25151E   25250.91670139  .00025933  00000+0  18373-2 0  9999
2 64820  51.8944  32.7731 0011565   4.4986  82.5994 15.04586419  5550
KUIPER-00074            
1 64821U 25151F   25250.91670139  .00032843  00000+0  98948-3 0  9995
2 64821  51.8789  28.8655 0007028 343.6575 167.5048 15.34012510  5328
KUIPER-00075            
1 64822U 25151G   25250.67428159  .00067822  00000+0  18172-2 0  9997
2 64822  51.8791  29.8300 0005046 332.1930  27.8786 15.37360668  8206
KUIPER-00076            
1 64823U 25151H   25250.91670139  .00030693  00000+0  10435-2 0  9992
2 64823  51.8819  29.0943 0007049 336.7846  75.6624 15.30173632  5119
KUIPER-00077            
1 64824U 25151J   25250.91670139  .00023746  00000+0  11421-2 0  9990
2 64824  51.8895  30.3022 0005475 333.0840 228.9058 15.18664232  5450
KUIPER-00078            
1 64825U 25151K   25250.91670139  .00024828  00000+0  10230-2 0  9990
2 64825  51.8812  29.5835 0007832  16.7281 166.5433 15.23922320  3908
